NORAD_CAT_ID,OBJECT_NAME,OBJECT_TYPE,EPOCH,MEAN_MOTION,ECCENTRICITY,INCLINATION,RA_OF_ASC_NODE,ARG_OF_PERICENTER,MEAN_ANOMALY,BSTAR,MEAN_MOTION_DOT,MEAN_MOTION_DDOT,TLE_LINE0,TLE_LINE1,TLE_LINE2,SEMIMAJOR_AXIS,PERIOD,APOGEE,PERIGEE,DECAYED
52108.0,STARLINK-3698,PAYLOAD,2023-09-07 07:43:42,15.08842411,0.0001352,53.2171,223.8747,95.8681,264.2465,7.4781e-05,9.02e-06,0.0,0 STARLINK-3698,1 52108U 22029W   23250.32201862  .00000902  00000-0  74781-4 0  9999,2 52108  53.2171 223.8747 0001352  95.8681 264.2465 15.08842411 82742,6917.873,95.437,540.673,538.803,0.0
52108.0,STARLINK-3698,PAYLOAD,2023-09-08 04:23:43,15.08844013,0.0001433,53.2171,220.011,92.3413,267.7743,3.432e-05,2.58e-06,0.0,0 STARLINK-3698,1 52108U 22029W   23251.18313962  .00000258  00000-0  34320-4 0  9998,2 52108  53.2171 220.0110 0001433  92.3413 267.7743 15.08844013 82871,6917.868,95.437,540.724,538.742,0.0
52108.0,STARLINK-3698,PAYLOAD,2023-09-08 15:31:24,15.08849417,0.0001466,53.217,217.9299,89.0208,271.0953,-3.9397e-06,-3.51e-06,0.0,0 STARLINK-3698,1 52108U 22029W   23251.64681626 -.00000351  00000-0 -39397-5 0  9990,2 52108  53.2170 217.9299 0001466  89.0208 271.0953 15.08849417 82946,6917.852,95.437,540.731,538.702,0.0
52108.0,STARLINK-3698,PAYLOAD,2023-09-09 07:25:16,15.0884613,0.0001561,53.2175,214.9556,96.5237,263.5933,0.000124,1.686e-05,0.0,0 STARLINK-3698,1 52108U 22029W   23252.30921487  .00001686  00000-0  12400-3 0  9990,2 52108  53.2175 214.9556 0001561  96.5237 263.5933 15.08846130 83040,6917.862,95.437,540.807,538.647,0.0
52108.0,STARLINK-3698,PAYLOAD,2023-09-10 00:54:31,15.08840392,0.0001565,53.2176,211.6842,97.9936,262.1234,6.6089e-05,7.64e-06,0.0,0 STARLINK-3698,1 52108U 22029W   23253.03786009  .00000764  00000-0  66089-4 0  9999,2 52108  53.2176 211.6842 0001565  97.9936 262.1234 15.08840392 83153,6917.879,95.438,540.827,538.662,0.0
52108.0,STARLINK-3698,PAYLOAD,2023-09-10 07:16:03,15.08836797,0.0001593,53.2179,210.4933,104.2537,255.8632,0.00015916,2.246e-05,0.0,0 STARLINK-3698,1 52108U 22029W   23253.30281950  .00002246  00000-0  15916-3 0  9993,2 52108  53.2179 210.4933 0001593 104.2537 255.8632 15.08836797 83193,6917.89,95.438,540.857,538.653,0.0
52108.0,STARLINK-3698,PAYLOAD,2023-09-11 03:56:04,15.08837782,0.0001367,53.217,206.631,96.8358,263.279,8.8573e-06,-1.47e-06,0.0,0 STARLINK-3698,1 52108U 22029W   23254.16394473 -.00000147  00000-0  88573-5 0  9993,2 52108  53.2170 206.6310 0001367  96.8358 263.2790 15.08837782 83324,6917.887,95.438,540.698,538.806,0.0
52108.0,STARLINK-3698,PAYLOAD,2023-09-11 13:28:23,15.08841146,0.0001353,53.2175,204.8475,96.9722,263.1424,-6.4952e-06,-3.91e-06,0.0,0 STARLINK-3698,1 52108U 22029W   23254.56138344 -.00000391  00000-0 -64952-5 0  9997,2 52108  53.2175 204.8475 0001353  96.9722 263.1424 15.08841146 83380,6917.877,95.437,540.678,538.806,0.0
52108.0,STARLINK-3698,PAYLOAD,2023-09-12 06:57:37,15.0884985,0.000129,53.2173,201.5752,96.7973,263.3166,0.00013997,1.941e-05,0.0,0 STARLINK-3698,1 52108U 22029W   23255.29001681  .00001941  00000-0  13997-3 0  9992,2 52108  53.2173 201.5752 0001290  96.7973 263.3166 15.08849850 83493,6917.85,95.437,540.608,538.823,0.0
52108.0,STARLINK-3698,PAYLOAD,2023-09-13 03:37:38,15.08849911,0.0001292,53.2169,197.711,92.9783,267.1357,0.00024427,3.603e-05,0.0,0 STARLINK-3698,1 52108U 22029W   23256.15113917  .00003603  00000-0  24427-3 0  9991,2 52108  53.2169 197.7110 0001292  92.9783 267.1357 15.08849911 83628,6917.85,95.437,540.609,538.821,0.0
52108.0,STARLINK-3698,PAYLOAD,2023-09-13 05:13:01,15.08856811,0.0001361,53.2165,197.4129,91.9645,268.1503,0.00035369,5.348e-05,0.0,0 STARLINK-3698,1 52108U 22029W   23256.21737664  .00005348  00000-0  35369-3 0  9994,2 52108  53.2165 197.4129 0001361  91.9645 268.1503 15.08856811 83636,6917.829,95.436,540.636,538.752,0.0
52108.0,STARLINK-3698,PAYLOAD,2023-09-14 01:53:02,15.08841437,0.0001397,53.2167,193.5467,91.9632,268.1521,5.092e-05,5.23e-06,0.0,0 STARLINK-3698,1 52108U 22029W   23257.07850013  .00000523  00000-0  50920-4 0  9994,2 52108  53.2167 193.5467 0001397  91.9632 268.1521 15.08841437 83767,6917.876,95.437,540.707,538.775,0.0
52108.0,STARLINK-3698,PAYLOAD,2023-09-14 05:03:48,15.08844875,0.0001397,53.2168,192.952,91.4552,268.66,0.0001811,2.596e-05,0.0,0 STARLINK-3698,1 52108U 22029W   23257.21097955  .00002596  00000-0  18110-3 0  9994,2 52108  53.2168 192.9520 0001397  91.4552 268.6600 15.08844875 83781,6917.865,95.437,540.697,538.764,0.0
52108.0,STARLINK-3698,PAYLOAD,2023-09-15 03:19:13,15.08840358,0.0001462,53.2177,188.7884,81.5551,278.5607,9.9334e-05,1.293e-05,0.0,0 STARLINK-3698,1 52108U 22029W   23258.13834504  .00001293  00000-0  99334-4 0  9996,2 52108  53.2177 188.7884 0001462  81.5551 278.5607 15.08840358 83924,6917.879,95.438,540.756,538.733,0.0
52108.0,STARLINK-3698,PAYLOAD,2023-09-15 04:54:36,15.08841402,0.0001434,53.2176,188.4906,82.5551,277.5604,0.00013009,1.783e-05,0.0,0 STARLINK-3698,1 52108U 22029W   23258.20458477  .00001783  00000-0  13009-3 0  9993,2 52108  53.2176 188.4906 0001434  82.5551 277.5604 15.08841402 83933,6917.876,95.437,540.733,538.749,0.0
52108.0,STARLINK-3698,PAYLOAD,2023-09-16 04:45:22,15.08854085,0.000141,53.2169,184.0304,96.7933,263.322,0.00039107,5.944e-05,0.0,0 STARLINK-3698,1 52108U 22029W   23259.19818143  .00005944  00000-0  39107-3 0  9992,2 52108  53.2169 184.0304 0001410  96.7933 263.3220 15.08854085 84089,6917.837,95.437,540.678,538.727,0.0
52108.0,STARLINK-3698,PAYLOAD,2023-09-17 01:25:23,15.0884812,0.0001361,53.217,180.1646,101.8551,258.2594,0.00021326,3.108e-05,0.0,0 STARLINK-3698,1 52108U 22029W   23260.05930203  .00003108  00000-0  21326-3 0  9995,2 52108  53.2170 180.1646 0001361 101.8551 258.2594 15.08848120 84211,6917.856,95.437,540.662,538.779,0.0
52108.0,STARLINK-3698,PAYLOAD,2023-09-17 04:36:09,15.08851143,0.000134,53.2172,179.5697,103.8139,256.3002,0.00029601,4.428e-05,0.0,0 STARLINK-3698,1 52108U 22029W   23260.19178097  .00004428  00000-0  29601-3 0  9995,2 52108  53.2172 179.5697 0001340 103.8139 256.3002 15.08851143 84236,6917.846,95.437,540.638,538.784,0.0
52108.0,STARLINK-3698,PAYLOAD,2023-09-18 01:16:10,15.08849145,0.0001334,53.2173,175.707,94.8683,265.2462,2.6798e-05,1.39e-06,0.0,0 STARLINK-3698,1 52108U 22029W   23261.05290064  .00000139  00000-0  26798-4 0  9990,2 52108  53.2173 175.7070 0001334  94.8683 265.2462 15.08849145 84368,6917.852,95.437,540.64,538.795,0.0
52108.0,STARLINK-3698,PAYLOAD,2023-09-18 04:26:56,15.08850826,0.0001307,53.217,175.1109,95.1196,264.9945,8.0967e-05,1.001e-05,0.0,0 STARLINK-3698,1 52108U 22029W   23261.18537932  .00001001  00000-0  80967-4 0  9999,2 52108  53.2170 175.1109 0001307  95.1196 264.9945 15.08850826 84387,6917.847,95.437,540.616,538.808,0.0
52108.0,STARLINK-3698,PAYLOAD,2023-09-18 18:45:25,15.08835938,0.0001369,53.2175,172.4333,95.208,264.9068,6.5534e-05,7.55e-06,0.0,0 STARLINK-3698,1 52108U 22029W   23261.78154916  .00000755  00000-0  65534-4 0  9990,2 52108  53.2175 172.4333 0001369  95.2080 264.9068 15.08835938 84475,6917.893,95.438,540.705,538.811,0.0
52108.0,STARLINK-3698,PAYLOAD,2023-09-19 02:42:21,15.08851776,0.0001355,53.2167,170.9491,93.6977,266.417,0.00037225,5.643e-05,0.0,0 STARLINK-3698,1 52108U 22029W   23262.11274324  .00005643  00000-0  37225-3 0  9990,2 52108  53.2167 170.9491 0001355  93.6977 266.4170 15.08851776 84521,6917.844,95.437,540.647,538.772,0.0
52108.0,STARLINK-3698,PAYLOAD,2023-09-20 02:33:07,15.08849283,0.0001371,53.2165,166.4898,94.3476,265.7672,0.00016296,2.307e-05,0.0,0 STARLINK-3698,1 52108U 22029W   23263.10634110  .00002307  00000-0  16296-3 0  9992,2 52108  53.2165 166.4898 0001371  94.3476 265.7672 15.08849283 84675,6917.852,95.437,540.665,538.769,0.0
52108.0,STARLINK-3698,PAYLOAD,2023-09-20 10:30:03,15.08853461,0.0001355,53.2164,165.0034,98.7379,261.3767,0.00020551,2.985e-05,0.0,0 STARLINK-3698,1 52108U 22029W   23263.43753671  .00002985  00000-0  20551-3 0  9993,2 52108  53.2164 165.0034 0001355  98.7379 261.3767 15.08853461 84729,6917.839,95.437,540.642,538.767,0.0
52108.0,STARLINK-3698,PAYLOAD,2023-09-20 21:37:44,15.08854898,0.0001357,53.217,162.9197,99.8839,260.2307,0.00012664,1.729e-05,0.0,0 STARLINK-3698,1 52108U 22029W   23263.90121170  .00001729  00000-0  12664-3 0  9999,2 52108  53.2170 162.9197 0001357  99.8839 260.2307 15.08854898 84797,6917.835,95.437,540.639,538.761,0.0
52108.0,STARLINK-3698,PAYLOAD,2023-09-21 02:23:55,15.0882685,0.0001299,53.2162,162.0281,86.236,273.8781,-0.00028673,-4.847e-05,0.0,0 STARLINK-3698,1 52108U 22029W   23264.09994544 -.00004847  00000-0 -28673-3 0  9996,2 52108  53.2162 162.0281 0001299  86.2360 273.8781 15.08826850 84824,6917.921,95.438,540.684,538.887,0.0
52108.0,STARLINK-3698,PAYLOAD,2023-09-21 03:59:18,15.08828485,0.0001223,53.2158,161.7296,87.5326,272.5806,-0.00026102,-4.438e-05,0.0,0 STARLINK-3698,1 52108U 22029W   23264.16618445 -.00004438  00000-0 -26102-3 0  9998,2 52108  53.2158 161.7296 0001223  87.5326 272.5806 15.08828485 84835,6917.916,95.438,540.627,538.935,0.0
52108.0,STARLINK-3698,PAYLOAD,2023-09-21 21:28:33,15.08826517,0.0001248,53.2163,158.4575,93.2974,266.816,-0.00018089,-3.164e-05,0.0,0 STARLINK-3698,1 52108U 22029W   23264.89483140 -.00003164  00000-0 -18089-3 0  9990,2 52108  53.2163 158.4575 0001248  93.2974 266.8160 15.08826517 84949,6917.922,95.438,540.65,538.923,0.0
52108.0,STARLINK-3698,PAYLOAD,2023-09-22 02:14:42,15.08829527,0.0001392,53.2167,157.5655,82.8384,277.2766,-4.4242e-05,-9.92e-06,0.0,0 STARLINK-3698,1 52108U 22029W   23265.09355063 -.00000992  00000-0 -44242-4 0  9992,2 52108  53.2167 157.5655 0001392  82.8384 277.2766 15.08829527 84976,6917.912,95.438,540.74,538.814,0.0
52108.0,STARLINK-3698,PAYLOAD,2023-09-22 21:19:20,15.08843836,0.0001394,53.2167,153.9968,82.8722,277.2429,4.1996e-05,3.81e-06,0.0,0 STARLINK-3698,1 52108U 22029W   23265.88843040  .00000381  00000-0  41996-4 0  9999,2 52108  53.2167 153.9968 0001394  82.8722 277.2429 15.08843836 85090,6917.869,95.437,540.698,538.769,0.0
